[{"OBJECT_NAME":"STARLINK-6360","OBJECT_ID":"2023-094T","EPOCH":"2026-03-09T22:00:01.999584","MEAN_MOTION":15.13769428,"ECCENTRICITY":0.00016307,"INCLINATION":43.001,"RA_OF_ASC_NODE":28.4041,"ARG_OF_PERICENTER":254.8509,"MEAN_ANOMALY":53.5974,"EPHEMERIS_TYPE":0,"CLASSIFICATION_TYPE":"U","NORAD_CAT_ID":57235,"ELEMENT_SET_NO":999,"REV_AT_EPOCH":577,"BSTAR":0.0042750417,"MEAN_MOTION_DOT":0.0007914,"MEAN_MOTION_DDOT":0},{"OBJECT_NAME":"FENGYUN 1C DEB","OBJECT_ID":"1999-025ARC","EPOCH":"2026-03-09T09:52:34.584960","MEAN_MOTION":14.8862073,"ECCENTRICITY":0.01277475,"INCLINATION":99.058,"RA_OF_ASC_NODE":51.7347,"ARG_OF_PERICENTER":19.4756,"MEAN_ANOMALY":341.1273,"EPHEMERIS_TYPE":0,"CLASSIFICATION_TYPE":"U","NORAD_CAT_ID":30694,"ELEMENT_SET_NO":999,"REV_AT_EPOCH":1384,"BSTAR":0.0015651053,"MEAN_MOTION_DOT":0.00016942,"MEAN_MOTION_DDOT":0}]
